{"type": "FeatureCollection", "features": [{"type": "Feature", "geometry": {"type": "Polygon", "coordinates": [[[-116.50778671690946, 53.67553718601935], [-116.51384288010699, 53.67554074010716], [-116.51384124023309, 53.671928940040196], [-116.50778583221948, 53.67192481190069], [-116.50778671690946, 53.67553718601935]]]}, "properties": {"PID": "51805424010", "M": 5, "RGE": 18, "TWP": 54, "SEC": 24, "QS": "SE", "LS": 1, "DESCRIPTOR": "LSD-01 SEC-24 TWP-054 RGE-18 MER-5", "RA": " "}}, {"type": "Feature", "geometry": {"type": "Polygon", "coordinates": [[[-116.51384288010699, 53.67554074010716], [-116.51989901700898, 53.6755439845605], [-116.51989665390686, 53.67193275820474], [-116.51384124023309, 53.671928940040196], [-116.51384288010699, 53.67554074010716]]]}, "properties": {"PID": "51805424020", "M": 5, "RGE": 18, "TWP": 54, "SEC": 24, "QS": "SE", "LS": 2, "DESCRIPTOR": "LSD-02 SEC-24 TWP-054 RGE-18 MER-5", "RA": " "}}, {"type": "Feature", "geometry": {"type": "Polygon", "coordinates": [[[-116.51989901700898, 53.6755439845605], [-116.52595826944504, 53.67554693869696], [-116.52595213245638, 53.67193627373079], [-116.51989665390686, 53.67193275820474], [-116.51989901700898, 53.6755439845605]]]}, "properties": {"PID": "51805424030", "M": 5, "RGE": 18, "TWP": 54, "SEC": 24, "QS": "SW", "LS": 3, "DESCRIPTOR": "LSD-03 SEC-24 TWP-054 RGE-18 MER-5", "RA": " "}}, {"type": "Feature", "geometry": {"type": "Polygon", "coordinates": [[[-116.53201749664473, 53.67554957657695], [-116.5323218903046, 53.675549705158595], [-116.532311927236, 53.67193962767349], [-116.5320075796223, 53.67193946625534], [-116.53201749664473, 53.67554957657695]]]}, "properties": {"PID": "51805424043", "M": 5, "RGE": 18, "TWP": 54, "SEC": 24, "QS": "SW", "LS": 4, "DESCRIPTOR": "RA LSD-04 SEC-24 TWP-054 RGE-18 MER-5", "RA": "RW"}}, {"type": "Feature", "geometry": {"type": "Polygon", "coordinates": [[[-116.52595826944504, 53.67554693869696], [-116.53201749664473, 53.67554957657695], [-116.5320075796223, 53.67193946625534], [-116.52595213245638, 53.67193627373079], [-116.52595826944504, 53.67554693869696]]]}, "properties": {"PID": "51805424040", "M": 5, "RGE": 18, "TWP": 54, "SEC": 24, "QS": "SW", "LS": 4, "DESCRIPTOR": "LSD-04 SEC-24 TWP-054 RGE-18 MER-5", "RA": " "}}, {"type": "Feature", "geometry": {"type": "Polygon", "coordinates": [[[-116.52596442570557, 53.67915760318592], [-116.53202743920704, 53.67915967375526], [-116.53201749664473, 53.67554957657695], [-116.52595826944504, 53.67554693869696], [-116.52596442570557, 53.67915760318592]]]}, "properties": {"PID": "51805424050", "M": 5, "RGE": 18, "TWP": 54, "SEC": 24, "QS": "SW", "LS": 5, "DESCRIPTOR": "LSD-05 SEC-24 TWP-054 RGE-18 MER-5", "RA": " "}}, {"type": "Feature", "geometry": {"type": "Polygon", "coordinates": [[[-116.53202743920704, 53.67915967375526], [-116.53233183350166, 53.67915977008152], [-116.5323218903046, 53.675549705158595], [-116.53201749664473, 53.67554957657695], [-116.53202743920704, 53.67915967375526]]]}, "properties": {"PID": "51805424053", "M": 5, "RGE": 18, "TWP": 54, "SEC": 24, "QS": "SW", "LS": 5, "DESCRIPTOR": "RA LSD-05 SEC-24 TWP-054 RGE-18 MER-5", "RA": "RW"}}, {"type": "Feature", "geometry": {"type": "Polygon", "coordinates": [[[-116.51990139765418, 53.67915522304674], [-116.52596442570557, 53.67915760318592], [-116.52595826944504, 53.67554693869696], [-116.51989901700898, 53.6755439845605], [-116.51990139765418, 53.67915522304674]]]}, "properties": {"PID": "51805424060", "M": 5, "RGE": 18, "TWP": 54, "SEC": 24, "QS": "SW", "LS": 6, "DESCRIPTOR": "LSD-06 SEC-24 TWP-054 RGE-18 MER-5", "RA": " "}}, {"type": "Feature", "geometry": {"type": "Polygon", "coordinates": [[[-116.51384450687003, 53.67915254639539], [-116.51990139765418, 53.67915522304674], [-116.51989901700898, 53.6755439845605], [-116.51384288010699, 53.67554074010716], [-116.51384450687003, 53.67915254639539]]]}, "properties": {"PID": "51805424070", "M": 5, "RGE": 18, "TWP": 54, "SEC": 24, "QS": "SE", "LS": 7, "DESCRIPTOR": "LSD-07 SEC-24 TWP-054 RGE-18 MER-5", "RA": " "}}, {"type": "Feature", "geometry": {"type": "Polygon", "coordinates": [[[-116.50778760908294, 53.67914955350659], [-116.51384450687003, 53.67915254639539], [-116.51384288010699, 53.67554074010716], [-116.50778671690946, 53.67553718601935], [-116.50778760908294, 53.67914955350659]]]}, "properties": {"PID": "51805424080", "M": 5, "RGE": 18, "TWP": 54, "SEC": 24, "QS": "SE", "LS": 8, "DESCRIPTOR": "LSD-08 SEC-24 TWP-054 RGE-18 MER-5", "RA": " "}}, {"type": "Feature", "geometry": {"type": "Polygon", "coordinates": [[[-116.50778995177204, 53.682779366742324], [-116.51384686971443, 53.68278545673782], [-116.51384450687003, 53.67915254639539], [-116.50778760908294, 53.67914955350659], [-116.50778995177204, 53.682779366742324]]]}, "properties": {"PID": "51805424090", "M": 5, "RGE": 18, "TWP": 54, "SEC": 24, "QS": "NE", "LS": 9, "DESCRIPTOR": "LSD-09 SEC-24 TWP-054 RGE-18 MER-5", "RA": " "}}, {"type": "Feature", "geometry": {"type": "Polygon", "coordinates": [[[-116.51384686971443, 53.68278545673782], [-116.51990379339799, 53.68279122315518], [-116.51990139765418, 53.67915522304674], [-116.51384450687003, 53.67915254639539], [-116.51384686971443, 53.68278545673782]]]}, "properties": {"PID": "51805424100", "M": 5, "RGE": 18, "TWP": 54, "SEC": 24, "QS": "NE", "LS": 10, "DESCRIPTOR": "LSD-10 SEC-24 TWP-054 RGE-18 MER-5", "RA": " "}}, {"type": "Feature", "geometry": {"type": "Polygon", "coordinates": [[[-116.51990379339799, 53.68279122315518], [-116.52597040676635, 53.682798500356675], [-116.52596442570557, 53.67915760318592], [-116.51990139765418, 53.67915522304674], [-116.51990379339799, 53.68279122315518]]]}, "properties": {"PID": "51805424110", "M": 5, "RGE": 18, "TWP": 54, "SEC": 24, "QS": "NW", "LS": 11, "DESCRIPTOR": "LSD-11 SEC-24 TWP-054 RGE-18 MER-5", "RA": " "}}, {"type": "Feature", "geometry": {"type": "Polygon", "coordinates": [[[-116.5320370147854, 53.68280547382299], [-116.53234145336928, 53.68280581522007], [-116.53233183350166, 53.67915977008152], [-116.53202743920704, 53.67915967375526], [-116.5320370147854, 53.68280547382299]]]}, "properties": {"PID": "51805424123", "M": 5, "RGE": 18, "TWP": 54, "SEC": 24, "QS": "NW", "LS": 12, "DESCRIPTOR": "RA LSD-12 SEC-24 TWP-054 RGE-18 MER-5", "RA": "RW"}}, {"type": "Feature", "geometry": {"type": "Polygon", "coordinates": [[[-116.52597040676635, 53.682798500356675], [-116.5320370147854, 53.68280547382299], [-116.53202743920704, 53.67915967375526], [-116.52596442570557, 53.67915760318592], [-116.52597040676635, 53.682798500356675]]]}, "properties": {"PID": "51805424120", "M": 5, "RGE": 18, "TWP": 54, "SEC": 24, "QS": "NW", "LS": 12, "DESCRIPTOR": "LSD-12 SEC-24 TWP-054 RGE-18 MER-5", "RA": " "}}, {"type": "Feature", "geometry": {"type": "Polygon", "coordinates": [[[-116.52597638295659, 53.686439397323724], [-116.53204660409982, 53.686451267153075], [-116.5320370147854, 53.68280547382299], [-116.52597040676635, 53.682798500356675], [-116.52597638295659, 53.686439397323724]]]}, "properties": {"PID": "51805424130", "M": 5, "RGE": 18, "TWP": 54, "SEC": 24, "QS": "NW", "LS": 13, "DESCRIPTOR": "LSD-13 SEC-24 TWP-054 RGE-18 MER-5", "RA": " "}}, {"type": "Feature", "geometry": {"type": "Polygon", "coordinates": [[[-116.53204660409982, 53.686451267153075], [-116.5323510549546, 53.686451847735384], [-116.53234145336928, 53.68280581522007], [-116.5320370147854, 53.68280547382299], [-116.53204660409982, 53.686451267153075]]]}, "properties": {"PID": "51805424133", "M": 5, "RGE": 18, "TWP": 54, "SEC": 24, "QS": "NW", "LS": 13, "DESCRIPTOR": "RA LSD-13 SEC-24 TWP-054 RGE-18 MER-5", "RA": "RW"}}, {"type": "Feature", "geometry": {"type": "Polygon", "coordinates": [[[-116.51990618212893, 53.6864272239871], [-116.52597638295659, 53.686439397323724], [-116.52597040676635, 53.682798500356675], [-116.51990379339799, 53.68279122315518], [-116.51990618212893, 53.6864272239871]]]}, "properties": {"PID": "51805424140", "M": 5, "RGE": 18, "TWP": 54, "SEC": 24, "QS": "NW", "LS": 14, "DESCRIPTOR": "LSD-14 SEC-24 TWP-054 RGE-18 MER-5", "RA": " "}}, {"type": "Feature", "geometry": {"type": "Polygon", "coordinates": [[[-116.51384924490036, 53.686418359467304], [-116.51990618212893, 53.6864272239871], [-116.51990379339799, 53.68279122315518], [-116.51384686971443, 53.68278545673782], [-116.51384924490036, 53.686418359467304]]]}, "properties": {"PID": "51805424150", "M": 5, "RGE": 18, "TWP": 54, "SEC": 24, "QS": "NE", "LS": 15, "DESCRIPTOR": "LSD-15 SEC-24 TWP-054 RGE-18 MER-5", "RA": " "}}, {"type": "Feature", "geometry": {"type": "Polygon", "coordinates": [[[-116.50779232068274, 53.686409180286866], [-116.51384924490036, 53.686418359467304], [-116.51384686971443, 53.68278545673782], [-116.50778995177204, 53.682779366742324], [-116.50779232068274, 53.686409180286866]]]}, "properties": {"PID": "51805424160", "M": 5, "RGE": 18, "TWP": 54, "SEC": 24, "QS": "NE", "LS": 16, "DESCRIPTOR": "LSD-16 SEC-24 TWP-054 RGE-18 MER-5", "RA": " "}}]}